{"epoch":1784799577,"count":18318,"objects":[{"id":"47276","name":"ONEWEB-0130","type":"PAYLOAD","l1":"1 47276U 20100U   26203.79262837 -.00000283  00000-0 -82325-3 0  9994","l2":"2 47276  87.8980 343.5751 0001972  98.7741 261.3611 13.12441797269311"},{"id":"47277","name":"ONEWEB-0131","type":"PAYLOAD","l1":"1 47277U 20100V   26203.78924510 -.00000217  00000-0 -63792-3 0  9991","l2":"2 47277  87.8970 343.5905 0001894 102.0201 258.1140 13.12441474269352"},{"id":"47278","name":"ONEWEB-0132","type":"PAYLOAD","l1":"1 47278U 20100W   26203.81803907 -.00000155  00000-0 -46648-3 0  9994","l2":"2 47278  87.8972 343.5876 0001830  99.5946 260.5390 13.12443888269252"},{"id":"47279","name":"ONEWEB-0133","type":"PAYLOAD","l1":"1 47279U 20100X   26203.83483536  .00000419  00000-0  11283-2 0  9996","l2":"2 47279  87.8984 343.5644 0001844 102.0404 258.0931 13.12444797269414"},{"id":"47280","name":"ONEWEB-0134","type":"PAYLOAD","l1":"1 47280U 20100Y   26203.34706182 -.00000339  00000-0 -97663-3 0  9999","l2":"2 47280  87.8984 343.6581 0002096 101.0587 259.0778 13.12443432269323"},{"id":"47281","name":"ONEWEB-0135","type":"PAYLOAD","l1":"1 47281U 20100Z   26203.85192106  .00000223  00000-0  58467-3 0  9990","l2":"2 47281  87.8971 343.5761 0002063 105.8724 254.2633 13.12443188269413"},{"id":"47282","name":"ONEWEB-0136","type":"PAYLOAD","l1":"1 47282U 20100AA  26203.79431739 -.00000346  00000-0 -99689-3 0  9991","l2":"2 47282  87.8979 343.5718 0002171 100.9088 259.2285 13.12442334269334"},{"id":"47283","name":"ONEWEB-0137","type":"PAYLOAD","l1":"1 47283U 20100AB  26203.29454117  .00000418  00000-0  11266-2 0  9994","l2":"2 47283  87.8984 343.6830 0001776  93.6253 266.5079 13.12444548269172"},{"id":"47284","name":"ONEWEB-0138","type":"PAYLOAD","l1":"1 47284U 20100AC  26203.80617947 -.00000407  00000-0 -11658-2 0  9999","l2":"2 47284  87.8982 343.5853 0002063  98.7938 261.3425 13.12443337269321"},{"id":"47285","name":"ONEWEB-0139","type":"PAYLOAD","l1":"1 47285U 20100AD  26203.84699361  .00000425  00000-0  11455-2 0  9997","l2":"2 47285  87.8984 343.5648 0001860  92.5891 267.5451 13.12442091269402"},{"id":"47286","name":"ONEWEB-0140","type":"PAYLOAD","l1":"1 47286U 20100AE  26203.64862052 -.00000353  00000-0 -10177-2 0  9997","l2":"2 47286  87.8983 343.5943 0001823 102.7275 257.4057 13.12443150269349"},{"id":"47287","name":"ONEWEB-0141","type":"PAYLOAD","l1":"1 47287U 20100AF  26203.61798679  .00000396  00000-0  10648-2 0  9996","l2":"2 47287  87.8982 343.6053 0001771  88.3655 271.7676 13.12443397269322"},{"id":"47288","name":"ONEWEB-0142","type":"PAYLOAD","l1":"1 47288U 20100AG  26203.83511663  .00000382  00000-0  10276-2 0  9999","l2":"2 47288  87.8975 343.5812 0002060  86.2054 273.9310 13.12444505269342"},{"id":"47289","name":"ONEWEB-0143","type":"PAYLOAD","l1":"1 47289U 20100AH  26203.69267337  .00000376  00000-0  10086-2 0  9992","l2":"2 47289  87.8975 343.6095 0001821  96.9965 263.1371 13.12442805269305"},{"id":"47290","name":"ONEWEB-0144","type":"PAYLOAD","l1":"1 47290U 20100AJ  26203.81634803 -.00000152  00000-0 -45742-3 0  9996","l2":"2 47290  87.8984 343.5614 0002208  95.0094 265.1287 13.12444096269241"},{"id":"47291","name":"ONEWEB-0145","type":"PAYLOAD","l1":"1 47291U 20100AK  26203.63506778 -.00000137  00000-0 -41653-3 0  9996","l2":"2 47291  87.8973 343.6212 0001919  96.1031 264.0316 13.12442636269414"},{"id":"47292","name":"ONEWEB-0146","type":"PAYLOAD","l1":"1 47292U 20100AL  26203.86039316  .00000103  00000-0  25112-3 0  9994","l2":"2 47292  87.8977 343.5701 0001564 102.9782 257.1521 13.12443073269356"},{"id":"47293","name":"ONEWEB-0147","type":"PAYLOAD","l1":"1 47293U 20100AM  26203.82650996  .00000221  00000-0  57758-3 0  9996","l2":"2 47293  87.8981 343.5599 0001928 101.4311 258.7035 13.12444617269243"},{"id":"48042","name":"ONEWEB-0115","type":"PAYLOAD","l1":"1 48042U 21025A   26203.59832924  .00000328  00000-0  86359-3 0  9990","l2":"2 48042  87.8987 313.1782 0001878 100.7159 259.4182 13.13472144258241"},{"id":"48043","name":"ONEWEB-0152","type":"PAYLOAD","l1":"1 48043U 21025B   26203.53564244  .00000277  00000-0  72342-3 0  9992","l2":"2 48043  87.8992 313.1897 0001891 103.3445 256.7896 13.13473552258197"},{"id":"48044","name":"ONEWEB-0153","type":"PAYLOAD","l1":"1 48044U 21025C   26203.74218805  .00000079  00000-0  18190-3 0  9996","l2":"2 48044  87.8978 313.1484 0002007  98.5609 261.5748 13.13469827258214"},{"id":"48045","name":"ONEWEB-0154","type":"PAYLOAD","l1":"1 48045U 21025D   26203.73880040  .00000064  00000-0  14120-3 0  9995","l2":"2 48045  87.8984 313.1489 0002063 105.0748 255.0610 13.13470640258173"},{"id":"48046","name":"ONEWEB-0116","type":"PAYLOAD","l1":"1 48046U 21025E   26203.77773299 -.00000026  00000-0 -10628-3 0  9996","l2":"2 48046  87.8989 313.1386 0001869 103.9638 256.1699 13.13470146258320"},{"id":"48047","name":"ONEWEB-0150","type":"PAYLOAD","l1":"1 48047U 21025F   26203.60168793  .00000433  00000-0  11515-2 0  9991","l2":"2 48047  87.8990 313.1711 0001876  96.0492 264.0850 13.13470428258198"},{"id":"48048","name":"ONEWEB-0107","type":"PAYLOAD","l1":"1 48048U 21025G   26203.75572324  .00000289  00000-0  75618-3 0  9991","l2":"2 48048  87.8990 313.1363 0002075  96.1599 263.9767 13.13472211258190"},{"id":"48049","name":"ONEWEB-0101","type":"PAYLOAD","l1":"1 48049U 21025H   26203.33759032 -.00000281  00000-0 -80443-3 0  9995","l2":"2 48049  87.8978 313.2315 0002100 101.5274 258.6091 13.13471473258117"},{"id":"48050","name":"ONEWEB-0113","type":"PAYLOAD","l1":"1 48050U 21025J   26203.73143427 -.00000120  00000-0 -36062-3 0  9996","l2":"2 48050  87.8981 313.0599 0001850  96.5654 263.5686 13.13891225258274"},{"id":"48051","name":"ONEWEB-0112","type":"PAYLOAD","l1":"1 48051U 21025K   26203.30374890  .00000234  00000-0  60532-3 0  9993","l2":"2 48051  87.8990 313.2245 0002215 100.1004 260.0375 13.13469373258207"},{"id":"48052","name":"ONEWEB-0156","type":"PAYLOAD","l1":"1 48052U 21025L   26203.31219469 -.00000082  00000-0 -25896-3 0  9992","l2":"2 48052  87.8989 313.2325 0001962  95.9164 264.2189 13.13468900258182"},{"id":"48053","name":"ONEWEB-0161","type":"PAYLOAD","l1":"1 48053U 21025M   26203.74386742  .00000137  00000-0  33960-3 0  9999","l2":"2 48053  87.8987 313.1473 0002039  94.4999 265.6363 13.13473596258175"}]}